{"type": "FeatureCollection", "features": [ {"type": "Feature", "properties": {"norad_id": 37532, "name": "COSMOS 2251 DEB", "group": "cosmos-2251-debris", "lat": 40.20527591703281, "lon": -143.19589909660604, "alt_km": 749.0230126436218, "timestamp": "2025-12-19T16:54:44.661177+00:00", "meta": {"OBJECT_NAME": "COSMOS 2251 DEB", "OBJECT_ID": "1993-036BNM", "EPOCH": "2025-12-14T09:22:45.259968", "MEAN_MOTION": 14.42410404, "ECCENTRICITY": 0.00160101, "INCLINATION": 74.0496, "RA_OF_ASC_NODE": 212.6604, "ARG_OF_PERICENTER": 313.2255, "MEAN_ANOMALY": 226.6563, "EPHEMERIS_TYPE": 0, "CLASSIFICATION_TYPE": "U", "NORAD_CAT_ID": 37532, "ELEMENT_SET_NO": 999, "REV_AT_EPOCH": 84939, "BSTAR": 0.00027461522, "MEAN_MOTION_DOT": 8.83e-06, "MEAN_MOTION_DDOT": 0}, "tle": {"line1": "1 37532U 93036BNM 25348.39080162  .00000883  00000+0  27462-3 0  9994", "line2": "2 37532  74.0496 212.6604 0016010 313.2255 226.6563 14.42410404849399"}}, "geometry": {"type": "Point", "coordinates": [-143.19589909660604, 40.20527591703281]}}, {"type": "Feature", "properties": {"norad_id": 37533, "name": "COSMOS 2251 DEB", "group": "cosmos-2251-debris", "lat": 73.16943842785538, "lon": -71.24012182257832, "alt_km": 930.005608551749, "timestamp": "2025-12-19T16:54:44.661187+00:00", "meta": {"OBJECT_NAME": "COSMOS 2251 DEB", "OBJECT_ID": "1993-036BNN", "EPOCH": "2025-12-17T06:38:38.162976", "MEAN_MOTION": 14.12190824, "ECCENTRICITY": 0.0157786, "INCLINATION": 74.0692, "RA_OF_ASC_NODE": 183.8069, "ARG_OF_PERICENTER": 239.4795, "MEAN_ANOMALY": 119.0691, "EPHEMERIS_TYPE": 0, "CLASSIFICATION_TYPE": "U", "NORAD_CAT_ID": 37533, "ELEMENT_SET_NO": 999, "REV_AT_EPOCH": 62985, "BSTAR": 0.0010470743, "MEAN_MOTION_DOT": 2.138e-05, "MEAN_MOTION_DDOT": 0}, "tle": {"line1": "1 37533U 93036BNN 25351.27683059  .00002138  00000+0  10471-2 0  9996", "line2": "2 37533  74.0692 183.8069 0157786 239.4795 119.0691 14.12190824629858"}}, "geometry": {"type": "Point", "coordinates": [-71.24012182257832, 73.16943842785538]}}, {"type": "Feature", "properties": {"norad_id": 37535, "name": "COSMOS 2251 DEB", "group": "cosmos-2251-debris", "lat": 72.15823390505416, "lon": 177.35285114669608, "alt_km": 694.1879168673076, "timestamp": "2025-12-19T16:54:44.661198+00:00", "meta": {"OBJECT_NAME": "COSMOS 2251 DEB", "OBJECT_ID": "1993-036BNQ", "EPOCH": "2025-12-18T14:42:12.921984", "MEAN_MOTION": 14.58494464, "ECCENTRICITY": 0.00274746, "INCLINATION": 74.024, "RA_OF_ASC_NODE": 62.3124, "ARG_OF_PERICENTER": 200.7826, "MEAN_ANOMALY": 286.0711, "EPHEMERIS_TYPE": 0, "CLASSIFICATION_TYPE": "U", "NORAD_CAT_ID": 37535, "ELEMENT_SET_NO": 999, "REV_AT_EPOCH": 85410, "BSTAR": 0.00050914659, "MEAN_MOTION_DOT": 2.347e-05, "MEAN_MOTION_DDOT": 0}, "tle": {"line1": "1 37535U 93036BNQ 25352.61264956  .00002347  00000+0  50915-3 0  9998", "line2": "2 37535  74.0240  62.3124 0027474 200.7826 286.0711 14.58494464854101"}}, "geometry": {"type": "Point", "coordinates": [177.35285114669608, 72.15823390505416]}}, {"type": "Feature", "properties": {"norad_id": 37537, "name": "COSMOS 2251 DEB", "group": "cosmos-2251-debris", "lat": 52.67784426235833, "lon": 50.20065259626015, "alt_km": 763.4594942500207, "timestamp": "2025-12-19T16:54:44.661208+00:00", "meta": {"OBJECT_NAME": "COSMOS 2251 DEB", "OBJECT_ID": "1993-036BNS", "EPOCH": "2025-12-18T00:15:20.074464", "MEAN_MOTION": 14.37498757, "ECCENTRICITY": 0.00505516, "INCLINATION": 74.0117, "RA_OF_ASC_NODE": 255.4114, "ARG_OF_PERICENTER": 34.2207, "MEAN_ANOMALY": 326.2186, "EPHEMERIS_TYPE": 0, "CLASSIFICATION_TYPE": "U", "NORAD_CAT_ID": 37537, "ELEMENT_SET_NO": 999, "REV_AT_EPOCH": 85109, "BSTAR": 0.00017725401, "MEAN_MOTION_DOT": 5.12e-06, "MEAN_MOTION_DDOT": 0}, "tle": {"line1": "1 37537U 93036BNS 25352.01064901  .00000512  00000+0  17725-3 0  9996", "line2": "2 37537  74.0117 255.4114 0050551  34.2207 326.2186 14.37498757851099"}}, "geometry": {"type": "Point", "coordinates": [50.20065259626015, 52.67784426235833]}}, {"type": "Feature", "properties": {"norad_id": 37546, "name": "COSMOS 2251 DEB", "group": "cosmos-2251-debris", "lat": -22.53732785068151, "lon": -88.91105071611564, "alt_km": 633.6727778567265, "timestamp": "2025-12-19T16:54:44.661218+00:00", "meta": {"OBJECT_NAME": "COSMOS 2251 DEB", "OBJECT_ID": "1993-036BPB", "EPOCH": "2025-12-18T05:56:47.088672", "MEAN_MOTION": 14.80729839, "ECCENTRICITY": 0.00053391, "INCLINATION": 74.0228, "RA_OF_ASC_NODE": 87.1348, "ARG_OF_PERICENTER": 89.0723, "MEAN_ANOMALY": 271.1065, "EPHEMERIS_TYPE": 0, "CLASSIFICATION_TYPE": "U", "NORAD_CAT_ID": 37546, "ELEMENT_SET_NO": 999, "REV_AT_EPOCH": 65969, "BSTAR": 0.0021105873, "MEAN_MOTION_DOT": 0.00016258, "MEAN_MOTION_DDOT": 0}, "tle": {"line1": "1 37546U 93036BPB 25352.24776723  .00016258  00000+0  21106-2 0  9994", "line2": "2 37546  74.0228  87.1348 0005339  89.0723 271.1065 14.80729839659698"}}, "geometry": {"type": "Point", "coordinates": [-88.91105071611564, -22.53732785068151]}}, {"type": "Feature", "properties": {"norad_id": 37959, "name": "COSMOS 2251 DEB", "group": "cosmos-2251-debris", "lat": -13.514743163345535, "lon": -132.37431946138898, "alt_km": 662.9844091407977, "timestamp": "2025-12-19T16:54:44.661229+00:00", "meta": {"OBJECT_NAME": "COSMOS 2251 DEB", "OBJECT_ID": "1993-036BPJ", "EPOCH": "2025-12-16T04:11:40.477056", "MEAN_MOTION": 14.58168105, "ECCENTRICITY": 0.00576225, "INCLINATION": 74.0114, "RA_OF_ASC_NODE": 50.3978, "ARG_OF_PERICENTER": 192.4748, "MEAN_ANOMALY": 198.948, "EPHEMERIS_TYPE": 0, "CLASSIFICATION_TYPE": "U", "NORAD_CAT_ID": 37959, "ELEMENT_SET_NO": 999, "REV_AT_EPOCH": 80177, "BSTAR": 0.00044823071, "MEAN_MOTION_DOT": 2.084e-05, "MEAN_MOTION_DDOT": 0}, "tle": {"line1": "1 37959U 93036BPJ 25350.17477404  .00002084  00000+0  44823-3 0  9990", "line2": "2 37959  74.0114  50.3978 0057622 192.4748 198.9480 14.58168105801772"}}, "geometry": {"type": "Point", "coordinates": [-132.37431946138898, -13.514743163345535]}}, {"type": "Feature", "properties": {"norad_id": 37960, "name": "COSMOS 2251 DEB", "group": "cosmos-2251-debris", "lat": -51.816295982419646, "lon": 15.997296105076146, "alt_km": 739.7387858822185, "timestamp": "2025-12-19T16:54:44.661239+00:00", "meta": {"OBJECT_NAME": "COSMOS 2251 DEB", "OBJECT_ID": "1993-036BPK", "EPOCH": "2025-12-16T19:35:27.740256", "MEAN_MOTION": 14.07867991, "ECCENTRICITY": 0.02485393, "INCLINATION": 74.059, "RA_OF_ASC_NODE": 179.7478, "ARG_OF_PERICENTER": 197.3915, "MEAN_ANOMALY": 161.86, "EPHEMERIS_TYPE": 0, "CLASSIFICATION_TYPE": "U", "NORAD_CAT_ID": 37960, "ELEMENT_SET_NO": 999, "REV_AT_EPOCH": 77463, "BSTAR": 0.00064570376, "MEAN_MOTION_DOT": 1.428e-05, "MEAN_MOTION_DDOT": 0}, "tle": {"line1": "1 37960U 93036BPK 25350.81629329  .00001428  00000+0  64570-3 0  9990", "line2": "2 37960  74.0590 179.7478 0248539 197.3915 161.8600 14.07867991774632"}}, "geometry": {"type": "Point", "coordinates": [15.997296105076146, -51.816295982419646]}}, {"type": "Feature", "properties": {"norad_id": 37961, "name": "COSMOS 2251 DEB", "group": "cosmos-2251-debris", "lat": -68.24066772510446, "lon": -10.331567222150078, "alt_km": 688.5830733595803, "timestamp": "2025-12-19T16:54:44.661249+00:00", "meta": {"OBJECT_NAME": "COSMOS 2251 DEB", "OBJECT_ID": "1993-036BPL", "EPOCH": "2025-12-13T03:18:27.462240", "MEAN_MOTION": 14.57979799, "ECCENTRICITY": 0.00406759, "INCLINATION": 74.0407, "RA_OF_ASC_NODE": 136.3488, "ARG_OF_PERICENTER": 216.8805, "MEAN_ANOMALY": 142.9561, "EPHEMERIS_TYPE": 0, "CLASSIFICATION_TYPE": "U", "NORAD_CAT_ID": 37961, "ELEMENT_SET_NO": 999, "REV_AT_EPOCH": 80071, "BSTAR": 0.001729191, "MEAN_MOTION_DOT": 8.011e-05, "MEAN_MOTION_DDOT": 0}, "tle": {"line1": "1 37961U 93036BPL 25347.13781785  .00008011  00000+0  17292-2 0  9990", "line2": "2 37961  74.0407 136.3488 0040675 216.8805 142.9561 14.57979799800716"}}, "geometry": {"type": "Point", "coordinates": [-10.331567222150078, -68.24066772510446]}}, {"type": "Feature", "properties": {"norad_id": 37966, "name": "COSMOS 2251 DEB", "group": "cosmos-2251-debris", "lat": -55.52641001722644, "lon": -168.68779950127825, "alt_km": 536.2894747147466, "timestamp": "2025-12-19T16:54:44.661260+00:00", "meta": {"OBJECT_NAME": "COSMOS 2251 DEB", "OBJECT_ID": "1993-036BPR", "EPOCH": "2025-12-13T08:51:38.453184", "MEAN_MOTION": 15.12754556, "ECCENTRICITY": 0.00088035, "INCLINATION": 73.9781, "RA_OF_ASC_NODE": 229.2381, "ARG_OF_PERICENTER": 105.8293, "MEAN_ANOMALY": 254.3871, "EPHEMERIS_TYPE": 0, "CLASSIFICATION_TYPE": "U", "NORAD_CAT_ID": 37966, "ELEMENT_SET_NO": 999, "REV_AT_EPOCH": 85352, "BSTAR": 0.0051051315, "MEAN_MOTION_DOT": 0.00090719, "MEAN_MOTION_DDOT": 0}, "tle": {"line1": "1 37966U 93036BPR 25347.36919506  .00090719  00000+0  51051-2 0  9991", "line2": "2 37966  73.9781 229.2381 0008803 105.8293 254.3871 15.12754556853526"}}, "geometry": {"type": "Point", "coordinates": [-168.68779950127825, -55.52641001722644]}}, {"type": "Feature", "properties": {"norad_id": 37967, "name": "COSMOS 2251 DEB", "group": "cosmos-2251-debris", "lat": -49.18577808770501, "lon": 105.09553965931828, "alt_km": 687.9170831825804, "timestamp": "2025-12-19T16:54:44.661270+00:00", "meta": {"OBJECT_NAME": "COSMOS 2251 DEB", "OBJECT_ID": "1993-036BPS", "EPOCH": "2025-12-18T02:49:02.762976", "MEAN_MOTION": 14.40572571, "ECCENTRICITY": 0.01510178, "INCLINATION": 74.0151, "RA_OF_ASC_NODE": 127.4202, "ARG_OF_PERICENTER": 265.0646, "MEAN_ANOMALY": 93.3255, "EPHEMERIS_TYPE": 0, "CLASSIFICATION_TYPE": "U", "NORAD_CAT_ID": 37967, "ELEMENT_SET_NO": 999, "REV_AT_EPOCH": 64813, "BSTAR": 0.0013319552, "MEAN_MOTION_DOT": 4.831e-05, "MEAN_MOTION_DDOT": 0}, "tle": {"line1": "1 37967U 93036BPS 25352.11739309  .00004831  00000+0  13320-2 0  9999", "line2": "2 37967  74.0151 127.4202 0151017 265.0646  93.3255 14.40572571648139"}}, "geometry": {"type": "Point", "coordinates": [105.09553965931828, -49.18577808770501]}}]}